[{"OBJECT_NAME":"STARLINK-4097","OBJECT_ID":"2022-086Z","EPOCH":"2026-03-09T15:47:41.080704","MEAN_MOTION":15.0884524,"ECCENTRICITY":0.0001261,"INCLINATION":53.2179,"RA_OF_ASC_NODE":194.2629,"ARG_OF_PERICENTER":86.5063,"MEAN_ANOMALY":273.6074,"EPHEMERIS_TYPE":0,"CLASSIFICATION_TYPE":"U","NORAD_CAT_ID":53265,"ELEMENT_SET_NO":999,"REV_AT_EPOCH":20106,"BSTAR":-7.938136e-6,"MEAN_MOTION_DOT":-4.14e-6,"MEAN_MOTION_DDOT":0},{"OBJECT_NAME":"PEGASUS DEB","OBJECT_ID":"1994-029AET","EPOCH":"2026-03-08T20:58:13.181952","MEAN_MOTION":14.33766801,"ECCENTRICITY":0.03416791,"INCLINATION":81.9646,"RA_OF_ASC_NODE":115.4043,"ARG_OF_PERICENTER":327.5056,"MEAN_ANOMALY":30.5491,"EPHEMERIS_TYPE":0,"CLASSIFICATION_TYPE":"U","NORAD_CAT_ID":39308,"ELEMENT_SET_NO":999,"REV_AT_EPOCH":66634,"BSTAR":0.0017314365,"MEAN_MOTION_DOT":9.329e-5,"MEAN_MOTION_DDOT":0}]
